{
  "norad_id": 65666,
  "name": "STARLINK-35181",
  "history": [
    {
      "epoch": "2026-03-28T16:38:25.910016Z",
      "apogee_km": 550.2217416003914,
      "perigee_km": 548.7760825382611,
      "latitude_deg": -5.758717705993324e-06,
      "longitude_deg": 57.11590421218442,
      "height_km": 552.8110864746104,
      "semi_major_axis_km": 6927.635912069326,
      "eccentricity": 0.00010434,
      "inclination_deg": 97.6014,
      "raan_deg": 132.834,
      "arg_perigee_deg": 110.1023,
      "mean_anomaly_deg": 250.0316,
      "mean_motion_rev_day": 15.05653991
    },
    {
      "epoch": "2026-03-29T02:12:37.872000Z",
      "apogee_km": 550.216719989583,
      "perigee_km": 548.7826991906968,
      "latitude_deg": -2.6187782543264487e-05,
      "longitude_deg": -86.43406024984024,
      "height_km": 552.8392692176142,
      "semi_major_axis_km": 6927.63670959014,
      "eccentricity": 0.0001035,
      "inclination_deg": 97.6015,
      "raan_deg": 133.2269,
      "arg_perigee_deg": 112.62,
      "mean_anomaly_deg": 247.5136,
      "mean_motion_rev_day": 15.05653731
    },
    {
      "epoch": "2026-03-30T02:08:07.691424Z",
      "apogee_km": 550.1526492058556,
      "perigee_km": 548.8388929271505,
      "latitude_deg": 1.9983284469506124e-06,
      "longitude_deg": -85.3083738027435,
      "height_km": 552.8277506577002,
      "semi_major_axis_km": 6927.632771066503,
      "eccentricity": 9.482e-05,
      "inclination_deg": 97.6013,
      "raan_deg": 134.2094,
      "arg_perigee_deg": 114.0833,
      "mean_anomaly_deg": 246.0493,
      "mean_motion_rev_day": 15.05655015
    },
    {
      "epoch": "2026-03-30T13:18:01.610784Z",
      "apogee_km": 549.8787564693057,
      "perigee_km": 549.1046632372681,
      "latitude_deg": -6.511041818909364e-05,
      "longitude_deg": 107.21684230472678,
      "height_km": 552.7554807102089,
      "semi_major_axis_km": 6927.628709853287,
      "eccentricity": 5.587e-05,
      "inclination_deg": 97.6013,
      "raan_deg": 134.6678,
      "arg_perigee_deg": 120.9812,
      "mean_anomaly_deg": 239.1469,
      "mean_motion_rev_day": 15.05656339
    },
    {
      "epoch": "2026-03-30T14:53:43.762560Z",
      "apogee_km": 550.1990189545995,
      "perigee_km": 548.798805184053,
      "latitude_deg": -1.1965211232982869e-05,
      "longitude_deg": 83.29129687437764,
      "height_km": 552.8536647697142,
      "semi_major_axis_km": 6927.635912069326,
      "eccentricity": 0.00010106,
      "inclination_deg": 97.6021,
      "raan_deg": 134.7334,
      "arg_perigee_deg": 114.5536,
      "mean_anomaly_deg": 245.5796,
      "mean_motion_rev_day": 15.05653991
    },
    {
      "epoch": "2026-03-31T13:13:32.046240Z",
      "apogee_km": 549.997798527449,
      "perigee_km": 549.0126878004721,
      "latitude_deg": 9.828134035060442e-06,
      "longitude_deg": 108.3409494441042,
      "height_km": 552.6113854265651,
      "semi_major_axis_km": 6927.64224316396,
      "eccentricity": 7.11e-05,
      "inclination_deg": 97.6005,
      "raan_deg": 135.6513,
      "arg_perigee_deg": 94.8906,
      "mean_anomaly_deg": 265.2402,
      "mean_motion_rev_day": 15.05651927
    },
    {
      "epoch": "2026-04-01T08:21:56.142144Z",
      "apogee_km": 550.0428379829546,
      "perigee_km": 548.9773658586791,
      "latitude_deg": 2.078053910127987e-05,
      "longitude_deg": -178.76020351289716,
      "height_km": 552.7972786426507,
      "semi_major_axis_km": 6927.647101920817,
      "eccentricity": 7.69e-05,
      "inclination_deg": 97.6023,
      "raan_deg": 136.4366,
      "arg_perigee_deg": 114.7491,
      "mean_anomaly_deg": 245.3816,
      "mean_motion_rev_day": 15.05650343
    },
    {
      "epoch": "2026-04-02T01:54:37.829664Z",
      "apogee_km": 550.0384256745429,
      "perigee_km": 548.9259885822612,
      "latitude_deg": 3.4991646723292606e-05,
      "longitude_deg": -81.93424652210457,
      "height_km": 552.8225348265831,
      "semi_major_axis_km": 6927.619207128401,
      "eccentricity": 8.029e-05,
      "inclination_deg": 97.6022,
      "raan_deg": 137.1568,
      "arg_perigee_deg": 119.7674,
      "mean_anomaly_deg": 240.3633,
      "mean_motion_rev_day": 15.05659437
    },
    {
      "epoch": "2026-04-02T21:03:01.490976Z",
      "apogee_km": 549.780195399002,
      "perigee_km": 549.1327425133932,
      "latitude_deg": 7.60868695412001e-05,
      "longitude_deg": -9.031788225659026,
      "height_km": 552.681820117126,
      "semi_major_axis_km": 6927.593468956197,
      "eccentricity": 4.673e-05,
      "inclination_deg": 97.6025,
      "raan_deg": 137.9439,
      "arg_perigee_deg": 119.7725,
      "mean_anomaly_deg": 240.3549,
      "mean_motion_rev_day": 15.05667828
    },
    {
      "epoch": "2026-04-03T16:11:25.993824Z",
      "apogee_km": 550.2076238386107,
      "perigee_km": 548.8594991473456,
      "latitude_deg": -6.534452589254573e-05,
      "longitude_deg": 63.865277778251475,
      "height_km": 552.4551021158826,
      "semi_major_axis_km": 6927.670561492978,
      "eccentricity": 9.73e-05,
      "inclination_deg": 97.6027,
      "raan_deg": 138.7291,
      "arg_perigee_deg": 77.8287,
      "mean_anomaly_deg": 282.3048,
      "mean_motion_rev_day": 15.05642695
    },
    {
      "epoch": "2026-04-04T14:31:14.155680Z",
      "apogee_km": 549.9745037809562,
      "perigee_km": 549.0489699097143,
      "latitude_deg": -3.128378045565849e-05,
      "longitude_deg": 88.91483589728158,
      "height_km": 552.7036337113857,
      "semi_major_axis_km": 6927.648736845335,
      "eccentricity": 6.68e-05,
      "inclination_deg": 97.6028,
      "raan_deg": 139.6464,
      "arg_perigee_deg": 106.017,
      "mean_anomaly_deg": 254.113,
      "mean_motion_rev_day": 15.0564981
    },
    {
      "epoch": "2026-04-05T14:26:43.879200Z",
      "apogee_km": 549.6348531370104,
      "perigee_km": 549.3346100111639,
      "latitude_deg": 1.548904608957696e-05,
      "longitude_deg": 90.04091855262898,
      "height_km": 552.5850512460363,
      "semi_major_axis_km": 6927.621731574087,
      "eccentricity": 2.167e-05,
      "inclination_deg": 97.6036,
      "raan_deg": 140.6289,
      "arg_perigee_deg": 103.6721,
      "mean_anomaly_deg": 256.453,
      "mean_motion_rev_day": 15.05658614
    },
    {
      "epoch": "2026-04-05T20:49:32.068128Z",
      "apogee_km": 549.9923376923689,
      "perigee_km": 549.0141548895926,
      "latitude_deg": 7.023155420213362e-05,
      "longitude_deg": -5.659395834979192,
      "height_km": 552.7066523663557,
      "semi_major_axis_km": 6927.640246290981,
      "eccentricity": 7.06e-05,
      "inclination_deg": 97.6027,
      "raan_deg": 140.8914,
      "arg_perigee_deg": 106.5424,
      "mean_anomaly_deg": 253.5881,
      "mean_motion_rev_day": 15.05652578
    },
    {
      "epoch": "2026-04-06T01:36:38.075904Z",
      "apogee_km": 550.0164394391841,
      "perigee_km": 548.9793724937608,
      "latitude_deg": -4.067009298784712e-05,
      "longitude_deg": -77.434726972768,
      "height_km": 552.7206839221531,
      "semi_major_axis_km": 6927.634905966472,
      "eccentricity": 7.485e-05,
      "inclination_deg": 97.6025,
      "raan_deg": 141.0876,
      "arg_perigee_deg": 107.8167,
      "mean_anomaly_deg": 252.3141,
      "mean_motion_rev_day": 15.05654319
    },
    {
      "epoch": "2026-04-07T09:30:38.104704Z",
      "apogee_km": 550.1016114665581,
      "perigee_km": 548.8896914105153,
      "latitude_deg": 3.277089584240528e-05,
      "longitude_deg": 164.06635302464562,
      "height_km": 552.7543303119239,
      "semi_major_axis_km": 6927.632651438536,
      "eccentricity": 8.747e-05,
      "inclination_deg": 97.6034,
      "raan_deg": 142.3989,
      "arg_perigee_deg": 108.749,
      "mean_anomaly_deg": 251.3832,
      "mean_motion_rev_day": 15.05655054
    },
    {
      "epoch": "2026-04-08T14:13:13.901664Z",
      "apogee_km": 549.8488385789924,
      "perigee_km": 549.1336302400714,
      "latitude_deg": 3.2943765607409436e-06,
      "longitude_deg": 93.41782385091834,
      "height_km": 552.7541533125118,
      "semi_major_axis_km": 6927.628234409532,
      "eccentricity": 5.162e-05,
      "inclination_deg": 97.6045,
      "raan_deg": 143.5786,
      "arg_perigee_deg": 123.6989,
      "mean_anomaly_deg": 236.4287,
      "mean_motion_rev_day": 15.05656494
    },
    {
      "epoch": "2026-04-09T20:31:32.157120Z",
      "apogee_km": 550.1747733768416,
      "perigee_km": 548.8308112571312,
      "latitude_deg": 6.019840169593951e-06,
      "longitude_deg": -1.1582296968164267,
      "height_km": 552.8166048979956,
      "semi_major_axis_km": 6927.639792316986,
      "eccentricity": 9.7e-05,
      "inclination_deg": 97.6046,
      "raan_deg": 144.8232,
      "arg_perigee_deg": 111.8449,
      "mean_anomaly_deg": 248.2881,
      "mean_motion_rev_day": 15.05652726
    },
    {
      "epoch": "2026-04-10T09:17:08.127168Z",
      "apogee_km": 550.2172458631212,
      "perigee_km": 548.7707565100745,
      "latitude_deg": 1.9711703401009475e-05,
      "longitude_deg": 167.44175770383646,
      "height_km": 552.7945440155438,
      "semi_major_axis_km": 6927.631001186598,
      "eccentricity": 0.0001044,
      "inclination_deg": 97.6038,
      "raan_deg": 145.3471,
      "arg_perigee_deg": 109.1192,
      "mean_anomaly_deg": 251.0148,
      "mean_motion_rev_day": 15.05655592
    },
    {
      "epoch": "2026-04-11T20:22:32.289312Z",
      "apogee_km": 550.3670646918335,
      "perigee_km": 548.6545501538394,
      "latitude_deg": -3.350662164267291e-05,
      "longitude_deg": 1.0912894428376774,
      "height_km": 552.8413605783669,
      "semi_major_axis_km": 6927.647807422836,
      "eccentricity": 0.0001236,
      "inclination_deg": 97.6038,
      "raan_deg": 146.7884,
      "arg_perigee_deg": 108.183,
      "mean_anomaly_deg": 251.9531,
      "mean_motion_rev_day": 15.05650113
    }
  ]
}